[{"OBJECT_NAME":"ONEWEB-0714","OBJECT_ID":"2022-166AR","EPOCH":"2026-03-09T22:27:53.159616","MEAN_MOTION":13.21824451,"ECCENTRICITY":0.00014639,"INCLINATION":87.9164,"RA_OF_ASC_NODE":263.772,"ARG_OF_PERICENTER":99.0677,"MEAN_ANOMALY":261.0623,"EPHEMERIS_TYPE":0,"CLASSIFICATION_TYPE":"U","NORAD_CAT_ID":54681,"ELEMENT_SET_NO":999,"REV_AT_EPOCH":15842,"BSTAR":9.5847636e-5,"MEAN_MOTION_DOT":5.3e-7,"MEAN_MOTION_DDOT":0},{"OBJECT_NAME":"CZ-4C DEB","OBJECT_ID":"2009-072G","EPOCH":"2026-03-07T02:32:21.156288","MEAN_MOTION":13.05693235,"ECCENTRICITY":0.01348874,"INCLINATION":100.7039,"RA_OF_ASC_NODE":24.1951,"ARG_OF_PERICENTER":333.4489,"MEAN_ANOMALY":87.3103,"EPHEMERIS_TYPE":0,"CLASSIFICATION_TYPE":"U","NORAD_CAT_ID":38659,"ELEMENT_SET_NO":999,"REV_AT_EPOCH":76950,"BSTAR":0.0013369947,"MEAN_MOTION_DOT":4.11e-6,"MEAN_MOTION_DDOT":0}]
